start=new Date('2022-03-09T00:00:00.000Z').valueOf();
sats=[{"ARG_OF_PERICENTER":"45.3847","MEAN_ELEMENT_THEORY":"SGP4","MEAN_MOTION":"15.73170958","ECCENTRICITY":"0.00011850","GP_ID":"198276744","MEAN_ANOMALY":"92.3960","PERIOD":"91.535","MEAN_MOTION_DOT":"0.00058521","NORAD_CAT_ID":"51772","TLE_LINE2":"2 51772  53.2195  87.8104 0001185  45.3847  92.3960 15.73170958  2268","CENTER_NAME":"EARTH","CLASSIFICATION_TYPE":"U","BSTAR":"0.00041900000000","MEAN_MOTION_DDOT":"0.0000000000000","REF_FRAME":"TEME","TLE_LINE1":"1 51772U 22017E   22067.91667824  .00058521  00000-0  41900-3 0  9992","OBJECT_TYPE":"PAYLOAD","SITE":"AFWTR","INCLINATION":"53.2195","FILE":"3351330","RA_OF_ASC_NODE":"87.8104","RCS_SIZE":"LARGE","TIME_SYSTEM":"UTC","APOAPSIS":"350.640","DECAY_DATE":null,"OBJECT_NAME":"STARLINK-3623","PERIAPSIS":"349.046","REV_AT_EPOCH":"226","LAUNCH_DATE":"2022-02-25","EPOCH":"2022-03-08T22:00:00.999936","SEMIMAJOR_AXIS":"6727.978","ELEMENT_SET_NO":"999","OBJECT_ID":"2022-017E","EPHEMERIS_TYPE":"0","COUNTRY_CODE":"US"},{"PERIOD":"91.531","MEAN_ANOMALY":"82.0670","MEAN_MOTION":"15.73239469","ECCENTRICITY":"0.00012130","GP_ID":"198276527","ARG_OF_PERICENTER":"54.3767","MEAN_ELEMENT_THEORY":"SGP4","MEAN_MOTION_DDOT":"0.0000000000000","CLASSIFICATION_TYPE":"U","BSTAR":"-0.00023072000000","MEAN_MOTION_DOT":"-0.00032928","NORAD_CAT_ID":"51773","CENTER_NAME":"EARTH","TLE_LINE2":"2 51773  53.2192  87.8127 0001213  54.3767  82.0670 15.73239469  2261","SITE":"AFWTR","OBJECT_TYPE":"PAYLOAD","TLE_LINE1":"1 51773U 22017F   22067.91667824 -.00032928  00000-0 -23072-3 0  9998","REF_FRAME":"TEME","RA_OF_ASC_NODE":"87.8127","RCS_SIZE":"LARGE","TIME_SYSTEM":"UTC","INCLINATION":"53.2192","FILE":"3351330","OBJECT_NAME":"STARLINK-3624","APOAPSIS":"350.464","DECAY_DATE":null,"PERIAPSIS":"348.832","REV_AT_EPOCH":"226","OBJECT_ID":"2022-017F","ELEMENT_SET_NO":"999","EPOCH":"2022-03-08T22:00:00.999936","SEMIMAJOR_AXIS":"6727.783","LAUNCH_DATE":"2022-02-25","COUNTRY_CODE":"US","EPHEMERIS_TYPE":"0"},{"PERIAPSIS":"349.063","REV_AT_EPOCH":"227","OBJECT_NAME":"STARLINK-3629","DECAY_DATE":null,"APOAPSIS":"350.822","COUNTRY_CODE":"US","EPHEMERIS_TYPE":"0","OBJECT_ID":"2022-017G","ELEMENT_SET_NO":"999","SEMIMAJOR_AXIS":"6728.077","EPOCH":"2022-03-08T22:00:00.999936","LAUNCH_DATE":"2022-02-25","MEAN_MOTION_DDOT":"0.0000000000000","BSTAR":"0.00030433000000","CLASSIFICATION_TYPE":"U","CENTER_NAME":"EARTH","TLE_LINE2":"2 51774  53.2195  87.8080 0001307  58.9525  80.0474 15.73136134  2275","MEAN_MOTION_DOT":"0.00042188","NORAD_CAT_ID":"51774","MEAN_ANOMALY":"80.0474","PERIOD":"91.537","ECCENTRICITY":"0.00013070","GP_ID":"198277178","MEAN_MOTION":"15.73136134","MEAN_ELEMENT_THEORY":"SGP4","ARG_OF_PERICENTER":"58.9525","RCS_SIZE":"LARGE","TIME_SYSTEM":"UTC","RA_OF_ASC_NODE":"87.8080","FILE":"3351330","INCLINATION":"53.2195","SITE":"AFWTR","OBJECT_TYPE":"PAYLOAD","TLE_LINE1":"1 51774U 22017G   22067.91667824  .00042188  00000-0  30433-3 0  9995","REF_FRAME":"TEME"},{"PERIAPSIS":"349.032","REV_AT_EPOCH":"227","OBJECT_NAME":"STARLINK-3620","APOAPSIS":"350.624","DECAY_DATE":null,"COUNTRY_CODE":"US","EPHEMERIS_TYPE":"0","OBJECT_ID":"2022-017H","ELEMENT_SET_NO":"999","EPOCH":"2022-03-08T22:00:00.999936","SEMIMAJOR_AXIS":"6727.963","LAUNCH_DATE":"2022-02-25","MEAN_MOTION_DDOT":"0.0000000000000","BSTAR":"0.00040140000000","CLASSIFICATION_TYPE":"U","NORAD_CAT_ID":"51775","MEAN_MOTION_DOT":"0.00056033","TLE_LINE2":"2 51775  53.2192  87.8113 0001183  60.2139  76.8708 15.73176317  2279","CENTER_NAME":"EARTH","PERIOD":"91.535","MEAN_ANOMALY":"76.8708","MEAN_MOTION":"15.73176317","GP_ID":"198276961","ECCENTRICITY":"0.00011830","ARG_OF_PERICENTER":"60.2139","MEAN_ELEMENT_THEORY":"SGP4","RA_OF_ASC_NODE":"87.8113","RCS_SIZE":"LARGE","TIME_SYSTEM":"UTC","INCLINATION":"53.2192","FILE":"3351330","OBJECT_TYPE":"PAYLOAD","SITE":"AFWTR","TLE_LINE1":"1 51775U 22017H   22067.91667824  .00056033  00000-0  40140-3 0  9996","REF_FRAME":"TEME"},{"COUNTRY_CODE":"US","EPHEMERIS_TYPE":"0","OBJECT_ID":"2022-017J","ELEMENT_SET_NO":"999","SEMIMAJOR_AXIS":"6727.993","EPOCH":"2022-03-08T22:00:00.999936","LAUNCH_DATE":"2022-02-25","REV_AT_EPOCH":"227","PERIAPSIS":"348.846","OBJECT_NAME":"STARLINK-3608","DECAY_DATE":null,"APOAPSIS":"350.870","RCS_SIZE":"MEDIUM","TIME_SYSTEM":"UTC","RA_OF_ASC_NODE":"87.8070","FILE":"3351330","INCLINATION":"53.2197","SITE":"AFWTR","OBJECT_TYPE":"PAYLOAD","TLE_LINE1":"1 51776U 22017J   22067.91667824  .00087295  00000-0  62086-3 0  9994","REF_FRAME":"TEME","MEAN_MOTION_DDOT":"0.0000000000000","CLASSIFICATION_TYPE":"U","BSTAR":"0.00062086000000","CENTER_NAME":"EARTH","TLE_LINE2":"2 51776  53.2197  87.8070 0001504  39.6101 100.0269 15.73165595  2271","MEAN_MOTION_DOT":"0.00087295","NORAD_CAT_ID":"51776","MEAN_ANOMALY":"100.0269","PERIOD":"91.535","GP_ID":"198277070","ECCENTRICITY":"0.00015040","MEAN_MOTION":"15.73165595","MEAN_ELEMENT_THEORY":"SGP4","ARG_OF_PERICENTER":"39.6101"},{"MEAN_ANOMALY":"78.6766","PERIOD":"91.533","ARG_OF_PERICENTER":"59.7131","MEAN_ELEMENT_THEORY":"SGP4","MEAN_MOTION":"15.73207070","GP_ID":"198276853","ECCENTRICITY":"0.00014220","MEAN_MOTION_DDOT":"0.0000000000000","MEAN_MOTION_DOT":"0.00005024","NORAD_CAT_ID":"51777","CENTER_NAME":"EARTH","TLE_LINE2":"2 51777  53.2193  87.8088 0001422  59.7131  78.6766 15.73207070  2279","CLASSIFICATION_TYPE":"U","BSTAR":"0.00004018100000","OBJECT_TYPE":"PAYLOAD","SITE":"AFWTR","REF_FRAME":"TEME","TLE_LINE1":"1 51777U 22017K   22067.91667824  .00005024  00000-0  40181-4 0  9998","RA_OF_ASC_NODE":"87.8088","RCS_SIZE":"LARGE","TIME_SYSTEM":"UTC","INCLINATION":"53.2193","FILE":"3351330","OBJECT_NAME":"STARLINK-3625","APOAPSIS":"350.697","DECAY_DATE":null,"REV_AT_EPOCH":"227","PERIAPSIS":"348.783","ELEMENT_SET_NO":"999","OBJECT_ID":"2022-017K","LAUNCH_DATE":"2022-02-25","EPOCH":"2022-03-08T22:00:00.999936","SEMIMAJOR_AXIS":"6727.875","COUNTRY_CODE":"US","EPHEMERIS_TYPE":"0"},{"BSTAR":"-0.00625340000000","CLASSIFICATION_TYPE":"U","NORAD_CAT_ID":"51778","MEAN_MOTION_DOT":"-0.00872438","CENTER_NAME":"EARTH","TLE_LINE2":"2 51778  53.2174  87.4739 0001141  54.1473 252.9890 15.75413704  2274","MEAN_MOTION_DDOT":"0.0000000000000","MEAN_MOTION":"15.75413704","ECCENTRICITY":"0.00011410","GP_ID":"198277287","ARG_OF_PERICENTER":"54.1473","MEAN_ELEMENT_THEORY":"SGP4","PERIOD":"91.405","MEAN_ANOMALY":"252.9890","INCLINATION":"53.2174","FILE":"3351330","RA_OF_ASC_NODE":"87.4739","RCS_SIZE":"LARGE","TIME_SYSTEM":"UTC","TLE_LINE1":"1 51778U 22017L   22067.91667824 -.00872438  00000-0 -62534-2 0  9996","REF_FRAME":"TEME","OBJECT_TYPE":"PAYLOAD","SITE":"AFWTR","PERIAPSIS":"342.689","REV_AT_EPOCH":"227","APOAPSIS":"344.223","DECAY_DATE":null,"OBJECT_NAME":"STARLINK-3615","EPHEMERIS_TYPE":"0","COUNTRY_CODE":"US","EPOCH":"2022-03-08T22:00:00.999936","SEMIMAJOR_AXIS":"6721.591","LAUNCH_DATE":"2022-02-25","OBJECT_ID":"2022-017L","ELEMENT_SET_NO":"999"},{"TLE_LINE1":"1 51779U 22017M   22067.91667824  .00092902  00000-0  66048-3 0  9990","REF_FRAME":"TEME","OBJECT_TYPE":"PAYLOAD","SITE":"AFWTR","FILE":"3351330","INCLINATION":"53.2194","TIME_SYSTEM":"UTC","RCS_SIZE":"LARGE","RA_OF_ASC_NODE":"87.8050","GP_ID":"198276636","ECCENTRICITY":"0.00011640","MEAN_MOTION":"15.73149481","MEAN_ELEMENT_THEORY":"SGP4","ARG_OF_PERICENTER":"47.0123","MEAN_ANOMALY":"93.3167","PERIOD":"91.536","BSTAR":"0.00066048000000","CLASSIFICATION_TYPE":"U","TLE_LINE2":"2 51779  53.2194  87.8050 0001164  47.0123  93.3167 15.73149481  2275","CENTER_NAME":"EARTH","NORAD_CAT_ID":"51779","MEAN_MOTION_DOT":"0.00092902","MEAN_MOTION_DDOT":"0.0000000000000","SEMIMAJOR_AXIS":"6728.039","EPOCH":"2022-03-08T22:00:00.999936","LAUNCH_DATE":"2022-02-25","OBJECT_ID":"2022-017M","ELEMENT_SET_NO":"999","EPHEMERIS_TYPE":"0","COUNTRY_CODE":"US","DECAY_DATE":null,"APOAPSIS":"350.687","OBJECT_NAME":"STARLINK-3611","PERIAPSIS":"349.121","REV_AT_EPOCH":"227"},{"MEAN_ELEMENT_THEORY":"SGP4","ARG_OF_PERICENTER":"59.0797","ECCENTRICITY":"0.00011960","GP_ID":"198276745","MEAN_MOTION":"15.73181320","MEAN_ANOMALY":"83.8092","PERIOD":"91.534","TLE_LINE2":"2 51780  53.2193  87.8007 0001196  59.0797  83.8092 15.73181320  2272","CENTER_NAME":"EARTH","MEAN_MOTION_DOT":"0.00020036","NORAD_CAT_ID":"51780","BSTAR":"0.00014695000000","CLASSIFICATION_TYPE":"U","MEAN_MOTION_DDOT":"0.0000000000000","REF_FRAME":"TEME","TLE_LINE1":"1 51780U 22017N   22067.91667824  .00020036  00000-0  14695-3 0  9992","SITE":"AFWTR","OBJECT_TYPE":"PAYLOAD","FILE":"3351330","INCLINATION":"53.2193","RCS_SIZE":"LARGE","TIME_SYSTEM":"UTC","RA_OF_ASC_NODE":"87.8007","DECAY_DATE":null,"APOAPSIS":"350.618","OBJECT_NAME":"STARLINK-3617","PERIAPSIS":"349.009","REV_AT_EPOCH":"227","LAUNCH_DATE":"2022-02-25","SEMIMAJOR_AXIS":"6727.948","EPOCH":"2022-03-08T22:00:00.999936","ELEMENT_SET_NO":"999","OBJECT_ID":"2022-017N","EPHEMERIS_TYPE":"0","COUNTRY_CODE":"US"},{"REF_FRAME":"TEME","TLE_LINE1":"1 51781U 22017P   22067.91667824 -.00020024  00000-0 -13848-3 0  9991","SITE":"AFWTR","OBJECT_TYPE":"PAYLOAD","FILE":"3351330","INCLINATION":"53.2195","RCS_SIZE":"MEDIUM","TIME_SYSTEM":"UTC","RA_OF_ASC_NODE":"87.8039","MEAN_ELEMENT_THEORY":"SGP4","ARG_OF_PERICENTER":"58.7371","ECCENTRICITY":"0.00012400","GP_ID":"198276528","MEAN_MOTION":"15.73219080","MEAN_ANOMALY":"82.2375","PERIOD":"91.532","CENTER_NAME":"EARTH","TLE_LINE2":"2 51781  53.2195  87.8039 0001240  58.7371  82.2375 15.73219080  2276","NORAD_CAT_ID":"51781","MEAN_MOTION_DOT":"-0.00020024","BSTAR":"-0.00013848000000","CLASSIFICATION_TYPE":"U","MEAN_MOTION_DDOT":"0.0000000000000","LAUNCH_DATE":"2022-02-25","SEMIMAJOR_AXIS":"6727.841","EPOCH":"2022-03-08T22:00:00.999936","ELEMENT_SET_NO":"999","OBJECT_ID":"2022-017P","EPHEMERIS_TYPE":"0","COUNTRY_CODE":"US","DECAY_DATE":null,"APOAPSIS":"350.540","OBJECT_NAME":"STARLINK-3580","PERIAPSIS":"348.872","REV_AT_EPOCH":"227"}];
